{
    "links": {
        "self": "http://www.neowsapp.com/rest/v1/neo/54051110?api_key=iIulBulltgU6a56xZRHN4H3l9WmuAYTsLGpBGhQ2"
    },
    "id": "54051110",
    "neo_reference_id": "54051110",
    "name": "(2020 QC)",
    "designation": "2020 QC",
    "nasa_jpl_url": "http://ssd.jpl.nasa.gov/sbdb.cgi?sstr=54051110",
    "absolute_magnitude_h": 27.502,
    "estimated_diameter": {
        "kilometers": {
            "estimated_diameter_min": 0.008397596,
            "estimated_diameter_max": 0.0187775955
        },
        "meters": {
            "estimated_diameter_min": 8.397595986,
            "estimated_diameter_max": 18.7775954724
        },
        "miles": {
            "estimated_diameter_min": 0.0052180226,
            "estimated_diameter_max": 0.0116678533
        },
        "feet": {
            "estimated_diameter_min": 27.5511688149,
            "estimated_diameter_max": 61.6062863296
        }
    },
    "is_potentially_hazardous_asteroid": false,
    "close_approach_data": [
        {
            "close_approach_date": "2020-08-18",
            "close_approach_date_full": "2020-Aug-18 18:04",
            "epoch_date_close_approach": 1597773840000,
            "relative_velocity": {
                "kilometers_per_second": "18.7959911506",
                "kilometers_per_hour": "67665.5681420851",
                "miles_per_hour": "42044.7526047306"
            },
            "miss_distance": {
                "astronomical": "0.0052326827",
                "lunar": "2.0355135703",
                "kilometers": "782798.186305849",
                "miles": "486408.2379207562"
            },
            "orbiting_body": "Earth"
        },
        {
            "close_approach_date": "2020-08-18",
            "close_approach_date_full": "2020-Aug-18 22:49",
            "epoch_date_close_approach": 1597790940000,
            "relative_velocity": {
                "kilometers_per_second": "18.8731499266",
                "kilometers_per_hour": "67943.3397358028",
                "miles_per_hour": "42217.3490708382"
            },
            "miss_distance": {
                "astronomical": "0.0052470843",
                "lunar": "2.0411157927",
                "kilometers": "784952.634990441",
                "miles": "487746.9502564458"
            },
            "orbiting_body": "Moon"
        }
    ],
    "orbital_data": {
        "orbit_id": "3",
        "orbit_determination_date": "2020-08-22 06:35:46",
        "first_observation_date": "2020-08-16",
        "last_observation_date": "2020-08-18",
        "data_arc_in_days": 2,
        "observations_used": 26,
        "orbit_uncertainty": "8",
        "minimum_orbit_intersection": ".00066047",
        "jupiter_tisserand_invariant": "3.640",
        "epoch_osculation": "2459078.5",
        "eccentricity": ".6560657591077163",
        "semi_major_axis": "1.904423159041389",
        "inclination": "6.098681340346972",
        "ascending_node_longitude": "326.6187851933718",
        "orbital_period": "959.9389374807299",
        "perihelion_distance": ".6549963335425852",
        "perihelion_argument": "83.3728854889671",
        "aphelion_distance": "3.153849984540193",
        "perihelion_time": "2459128.566250675763",
        "mean_anomaly": "341.2239617130475",
        "mean_motion": ".3750238540638703",
        "equinox": "J2000",
        "orbit_class": {
            "orbit_class_type": "APO",
            "orbit_class_description": "Near-Earth asteroid orbits which cross the Earth’s orbit similar to that of 1862 Apollo",
            "orbit_class_range": "a (semi-major axis) > 1.0 AU; q (perihelion) < 1.017 AU"
        }
    },
    "is_sentry_object": false
}